CTC2_L_00385001-01
1 23744U 23424JX  26037.47795139  .00000000  00000+0  00000-0 0  9997
2 23744  65.0000   0.0000 0000000   0.0000   0.0000 12.90383911    11
CTC2_L_00385001-02
1 23745U 24001PJ  26037.47795139  .00000000  00000+0  00000-0 0  9990
2 23745  65.0000   0.0000 0000000   0.0000  90.0000 12.90383911    11
CTC2_L_00385001-03
1 23746U 22430TA  26037.47795139  .00000000  00000+0  00000-0 0  9995
2 23746  65.0000   0.0000 0000000   0.0000 180.0000 12.90383911    12
CTC2_L_00385001-04
1 23747U 25359UE  26037.47795139  .00000000  00000+0  00000-0 0  9999
2 23747  65.0000   0.0000 0000000   0.0000 270.0000 12.90383911    13
CTC2_L_00385002-01
1 23748U 26989JU  26037.47795139  .00000000  00000+0  00000-0 0  9990
2 23748  65.0000  12.0000 0000000   0.0000  12.0000 12.90383911    11
CTC2_L_00385002-02
1 23749U 23868JO  26037.47795139  .00000000  00000+0  00000-0 0  9994
2 23749  65.0000  12.0000 0000000   0.0000 102.0000 12.90383911    12
CTC2_L_00385002-03
1 23750U 24430RV  26037.47795139  .00000000  00000+0  00000-0 0  9992
2 23750  65.0000  12.0000 0000000   0.0000 192.0000 12.90383911    13
CTC2_L_00385002-04
1 23751U 22196IY  26037.47795139  .00000000  00000+0  00000-0 0  9990
2 23751  65.0000  12.0000 0000000   0.0000 282.0000 12.90383911    14
CTC2_L_00385003-01
1 23752U 22465ZJ  26037.47795139  .00000000  00000+0  00000-0 0  9990
2 23752  65.0000  24.0000 0000000   0.0000  24.0000 12.90383911    12
CTC2_L_00385003-02
1 23753U 23555ZO  26037.47795139  .00000000  00000+0  00000-0 0  9992
2 23753  65.0000  24.0000 0000000   0.0000 114.0000 12.90383911    13
CTC2_L_00385003-03
1 23754U 26430SO  26037.47795139  .00000000  00000+0  00000-0 0  9998
2 23754  65.0000  24.0000 0000000   0.0000 204.0000 12.90383911    14
CTC2_L_00385003-04
1 23755U 22061GK  26037.47795139  .00000000  00000+0  00000-0 0  9995
2 23755  65.0000  24.0000 0000000   0.0000 294.0000 12.90383911    14
CTC2_L_00385004-01
1 23756U 23283QN  26037.47795139  .00000000  00000+0  00000-0 0  9993
2 23756  65.0000  36.0000 0000000   0.0000  36.0000 12.90383911    12
CTC2_L_00385004-02
1 23757U 22049GU  26037.47795139  .00000000  00000+0  00000-0 0  9993
2 23757  65.0000  36.0000 0000000   0.0000 126.0000 12.90383911    13
CTC2_L_00385004-03
1 23758U 26985YD  26037.47795139  .00000000  00000+0  00000-0 0  9997
2 23758  65.0000  36.0000 0000000   0.0000 216.0000 12.90383911    14
CTC2_L_00385004-04
1 23759U 24019SZ  26037.47795139  .00000000  00000+0  00000-0 0  9994
2 23759  65.0000  36.0000 0000000   0.0000 306.0000 12.90383911    15
CTC2_L_00385005-01
1 23760U 22774FP  26037.47795139  .00000000  00000+0  00000-0 0  9992
2 23760  65.0000  48.0000 0000000   0.0000  48.0000 12.90383911    13
CTC2_L_00385005-02
1 23761U 25281ZB  26037.47795139  .00000000  00000+0  00000-0 0  9999
2 23761  65.0000  48.0000 0000000   0.0000 138.0000 12.90383911    14
CTC2_L_00385005-03
1 23762U 24424SL  26037.47795139  .00000000  00000+0  00000-0 0  9998
2 23762  65.0000  48.0000 0000000   0.0000 228.0000 12.90383911    15
CTC2_L_00385005-04
1 23763U 26752UP  26037.47795139  .00000000  00000+0  00000-0 0  9995
2 23763  65.0000  48.0000 0000000   0.0000 318.0000 12.90383911    16
CTC2_L_00385006-01
1 23764U 22695XQ  26037.47795139  .00000000  00000+0  00000-0 0  9998
2 23764  65.0000  60.0000 0000000   0.0000  60.0000 12.90383911    15
CTC2_L_00385006-02
1 23765U 26458YC  26037.47795139  .00000000  00000+0  00000-0 0  9990
2 23765  65.0000  60.0000 0000000   0.0000 150.0000 12.90383911    16
CTC2_L_00385006-03
1 23766U 22589QB  26037.47795139  .00000000  00000+0  00000-0 0  9992
2 23766  65.0000  60.0000 0000000   0.0000 240.0000 12.90383911    17
CTC2_L_00385006-04
1 23767U 25849XF  26037.47795139  .00000000  00000+0  00000-0 0  9995
2 23767  65.0000  60.0000 0000000   0.0000 330.0000 12.90383911    18
CTC2_L_00385007-01
1 23768U 24853NC  26037.47795139  .00000000  00000+0  00000-0 0  9990
2 23768  65.0000  72.0000 0000000   0.0000  72.0000 12.90383911    15
CTC2_L_00385007-02
1 23769U 22363AT  26037.47795139  .00000000  00000+0  00000-0 0  9995
2 23769  65.0000  72.0000 0000000   0.0000 162.0000 12.90383911    16
CTC2_L_00385007-03
1 23770U 26917LQ  26037.47795139  .00000000  00000+0  00000-0 0  9996
2 23770  65.0000  72.0000 0000000   0.0000 252.0000 12.90383911    18
CTC2_L_00385007-04
1 23771U 23675WE  26037.47795139  .00000000  00000+0  00000-0 0  9995
2 23771  65.0000  72.0000 0000000   0.0000 342.0000 12.90383911    19
CTC2_L_00385008-01
1 23772U 22760KO  26037.47795139  .00000000  00000+0  00000-0 0  9990
2 23772  65.0000  84.0000 0000000   0.0000  84.0000 12.90383911    16
CTC2_L_00385008-02
1 23773U 23719GB  26037.47795139  .00000000  00000+0  00000-0 0  9996
2 23773  65.0000  84.0000 0000000   0.0000 174.0000 12.90383911    17
CTC2_L_00385008-03
1 23774U 24526GC  26037.47795139  .00000000  00000+0  00000-0 0  9994
2 23774  65.0000  84.0000 0000000   0.0000 264.0000 12.90383911    18
CTC2_L_00385008-04
1 23775U 24044TR  26037.47795139  .00000000  00000+0  00000-0 0  9990
2 23775  65.0000  84.0000 0000000   0.0000 354.0000 12.90383911    19
CTC2_L_00385009-01
1 23776U 26692VZ  26037.47795139  .00000000  00000+0  00000-0 0  9992
2 23776  65.0000  96.0000 0000000   0.0000  96.0000 12.90383911    16
CTC2_L_00385009-02
1 23777U 26305CU  26037.47795139  .00000000  00000+0  00000-0 0  9994
2 23777  65.0000  96.0000 0000000   0.0000 186.0000 12.90383911    17
CTC2_L_00385009-03
1 23778U 25903ZN  26037.47795139  .00000000  00000+0  00000-0 0  9998
2 23778  65.0000  96.0000 0000000   0.0000 276.0000 12.90383911    18
CTC2_L_00385009-04
1 23779U 24414SH  26037.47795139  .00000000  00000+0  00000-0 0  9995
2 23779  65.0000  96.0000 0000000   0.0000   6.0000 12.90383911    10
CTC2_L_00385010-01
1 23780U 25531VI  26037.47795139  .00000000  00000+0  00000-0 0  9998
2 23780  65.0000 108.0000 0000000   0.0000 108.0000 12.90383911    19
CTC2_L_00385010-02
1 23781U 22083EN  26037.47795139  .00000000  00000+0  00000-0 0  9998
2 23781  65.0000 108.0000 0000000   0.0000 198.0000 12.90383911    19
CTC2_L_00385010-03
1 23782U 23296EP  26037.47795139  .00000000  00000+0  00000-0 0  9996
2 23782  65.0000 108.0000 0000000   0.0000 288.0000 12.90383911    10
CTC2_L_00385010-04
1 23783U 23335QN  26037.47795139  .00000000  00000+0  00000-0 0  9991
2 23783  65.0000 108.0000 0000000   0.0000  18.0000 12.90383911    12
CTC2_L_00385011-01
1 23784U 26242LB  26037.47795139  .00000000  00000+0  00000-0 0  9992
2 23784  65.0000 120.0000 0000000   0.0000 120.0000 12.90383911    11
CTC2_L_00385011-02
1 23785U 24921AO  26037.47795139  .00000000  00000+0  00000-0 0  9995
2 23785  65.0000 120.0000 0000000   0.0000 210.0000 12.90383911    12
CTC2_L_00385011-03
1 23786U 24056QM  26037.47795139  .00000000  00000+0  00000-0 0  9995
2 23786  65.0000 120.0000 0000000   0.0000 300.0000 12.90383911    13
CTC2_L_00385011-04
1 23787U 26777QT  26037.47795139  .00000000  00000+0  00000-0 0  9998
2 23787  65.0000 120.0000 0000000   0.0000  30.0000 12.90383911    14
CTC2_L_00385012-01
1 23788U 23195JQ  26037.47795139  .00000000  00000+0  00000-0 0  9990
2 23788  65.0000 132.0000 0000000   0.0000 132.0000 12.90383911    11
CTC2_L_00385012-02
1 23789U 25741Y   26037.47795139  .00000000  00000+0  00000-0 0  9990
2 23789  65.0000 132.0000 0000000   0.0000 222.0000 12.90383911    12
CTC2_L_00385012-03
1 23790U 22645SE  26037.47795139  .00000000  00000+0  00000-0 0  9992
2 23790  65.0000 132.0000 0000000   0.0000 312.0000 12.90383911    14
CTC2_L_00385012-04
1 23791U 25178GB  26037.47795139  .00000000  00000+0  00000-0 0  9997
2 23791  65.0000 132.0000 0000000   0.0000  42.0000 12.90383911    15
CTC2_L_00385013-01
1 23792U 26255OP  26037.47795139  .00000000  00000+0  00000-0 0  9995
2 23792  65.0000 144.0000 0000000   0.0000 144.0000 12.90383911    12
CTC2_L_00385013-02
1 23793U 26736SL  26037.47795139  .00000000  00000+0  00000-0 0  9990
2 23793  65.0000 144.0000 0000000   0.0000 234.0000 12.90383911    13
CTC2_L_00385013-03
1 23794U 25062V   26037.47795139  .00000000  00000+0  00000-0 0  9992
2 23794  65.0000 144.0000 0000000   0.0000 324.0000 12.90383911    14
CTC2_L_00385013-04
1 23795U 23610K   26037.47795139  .00000000  00000+0  00000-0 0  9990
2 23795  65.0000 144.0000 0000000   0.0000  54.0000 12.90383911    15
CTC2_L_00385014-01
1 23796U 26251BE  26037.47795139  .00000000  00000+0  00000-0 0  9995
2 23796  65.0000 156.0000 0000000   0.0000 156.0000 12.90383911    12
CTC2_L_00385014-02
1 23797U 22279PA  26037.47795139  .00000000  00000+0  00000-0 0  9992
2 23797  65.0000 156.0000 0000000   0.0000 246.0000 12.90383911    13
CTC2_L_00385014-03
1 23798U 25140KZ  26037.47795139  .00000000  00000+0  00000-0 0  9993
2 23798  65.0000 156.0000 0000000   0.0000 336.0000 12.90383911    14
CTC2_L_00385014-04
1 23799U 22966RL  26037.47795139  .00000000  00000+0  00000-0 0  9997
2 23799  65.0000 156.0000 0000000   0.0000  66.0000 12.90383911    15
CTC2_L_00385015-01
1 23800U 26710IP  26037.47795139  .00000000  00000+0  00000-0 0  9991
2 23800  65.0000 168.0000 0000000   0.0000 168.0000 12.90383911    14
CTC2_L_00385015-02
1 23801U 22081WM  26037.47795139  .00000000  00000+0  00000-0 0  9999
2 23801  65.0000 168.0000 0000000   0.0000 258.0000 12.90383911    15
CTC2_L_00385015-03
1 23802U 22199OT  26037.47795139  .00000000  00000+0  00000-0 0  9990
2 23802  65.0000 168.0000 0000000   0.0000 348.0000 12.90383911    16
CTC2_L_00385015-04
1 23803U 22680JT  26037.47795139  .00000000  00000+0  00000-0 0  9996
2 23803  65.0000 168.0000 0000000   0.0000  78.0000 12.90383911    17
CTC2_L_00385016-01
1 23804U 26586HE  26037.47795139  .00000000  00000+0  00000-0 0  9996
2 23804  65.0000 180.0000 0000000   0.0000 180.0000 12.90383911    16
CTC2_L_00385016-02
1 23805U 22983PO  26037.47795139  .00000000  00000+0  00000-0 0  9994
2 23805  65.0000 180.0000 0000000   0.0000 270.0000 12.90383911    17
